[
    {
        "Altitude(m)": 571551.263898847,
        "Argument of Periapsis(deg)": 0.0,
        "Eccentricity": 0.0,
        "Inclination(deg)": 53.0,
        "Latitude(deg)": -52.3881551454862,
        "Longitude(deg)": -3.3757642569485915,
        "Mean Anomaly(deg)": -98.18180000000002,
        "RAAN(deg)": 200.0,
        "Satellite Name": "Starlink Shell 1 896",
        "Satellite Number": 896,
        "Semi-Major Axis(m)": 6931778.249405717,
        "Time(s)": 0
    },
    {
        "Altitude(m)": 571594.4057782514,
        "Argument of Periapsis(deg)": 0.00034857847951123687,
        "Eccentricity": 0.0,
        "Inclination(deg)": 53.0,
        "Latitude(deg)": -52.49959681937401,
        "Longitude(deg)": -2.411366460909885,
        "Mean Anomaly(deg)": -97.55496879644328,
        "RAAN(deg)": 199.99948122992257,
        "Satellite Name": "Starlink Shell 1 896",
        "Satellite Number": 896,
        "Semi-Major Axis(m)": 6931778.249405717,
        "Time(s)": 10
    },
    {
        "Altitude(m)": 571634.166715339,
        "Argument of Periapsis(deg)": 0.0006971569590224737,
        "Eccentricity": 0.0,
        "Inclination(deg)": 53.0,
        "Latitude(deg)": -52.602451086000876,
        "Longitude(deg)": -1.442075917256417,
        "Mean Anomaly(deg)": -96.92813759288659,
        "RAAN(deg)": 199.99896245984505,
        "Satellite Name": "Starlink Shell 1 896",
        "Satellite Number": 896,
        "Semi-Major Axis(m)": 6931778.249405717,
        "Time(s)": 20
    },
    {
        "Altitude(m)": 571670.5308278161,
        "Argument of Periapsis(deg)": 0.0010457354385337105,
        "Eccentricity": 0.0,
        "Inclination(deg)": 53.0,
        "Latitude(deg)": -52.69664634184477,
        "Longitude(deg)": -0.46824858657987173,
        "Mean Anomaly(deg)": -96.30130638932984,
        "RAAN(deg)": 199.9984436897676,
        "Satellite Name": "Starlink Shell 1 896",
        "Satellite Number": 896,
        "Semi-Major Axis(m)": 6931778.249405717,
        "Time(s)": 30
    },
    {
        "Altitude(m)": 571703.4835865878,
        "Argument of Periapsis(deg)": 0.0013943139180449475,
        "Eccentricity": 0.0,
        "Inclination(deg)": 53.0,
        "Latitude(deg)": -52.78211632204773,
        "Longitude(deg)": 0.5097476457804166,
        "Mean Anomaly(deg)": -95.67447518577309,
        "RAAN(deg)": 199.9979249196901,
        "Satellite Name": "Starlink Shell 1 896",
        "Satellite Number": 896,
        "Semi-Major Axis(m)": 6931778.249405717,
        "Time(s)": 40
    },
    {
        "Altitude(m)": 571733.0118220416,
        "Argument of Periapsis(deg)": 0.0017428923975561844,
        "Eccentricity": 0.0,
        "Inclination(deg)": 53.0,
        "Latitude(deg)": -52.858800322199755,
        "Longitude(deg)": 1.491532794622328,
        "Mean Anomaly(deg)": -95.0476439822164,
        "RAAN(deg)": 199.9974061496126,
        "Satellite Name": "Starlink Shell 1 896",
        "Satellite Number": 896,
        "Semi-Major Axis(m)": 6931778.249405717,
        "Time(s)": 50
    },
    {
        "Altitude(m)": 571759.1037297625,
        "Argument of Periapsis(deg)": 0.002091470877067421,
        "Eccentricity": 0.0,
        "Inclination(deg)": 53.0,
        "Latitude(deg)": -52.92664340489439,
        "Longitude(deg)": 2.4767161891212286,
        "Mean Anomaly(deg)": -94.42081277865978,
        "RAAN(deg)": 199.99688737953517,
        "Satellite Name": "Starlink Shell 1 896",
        "Satellite Number": 896,
        "Semi-Major Axis(m)": 6931778.249405717,
        "Time(s)": 60
    },
    {
        "Altitude(m)": 571781.7488756302,
        "Argument of Periapsis(deg)": 0.0024400493565786582,
        "Eccentricity": 0.0,
        "Inclination(deg)": 53.0,
        "Latitude(deg)": -52.985596589462965,
        "Longitude(deg)": 3.4648979590493787,
        "Mean Anomaly(deg)": -93.7939815751029,
        "RAAN(deg)": 199.9963686094577,
        "Satellite Name": "Starlink Shell 1 896",
        "Satellite Number": 896,
        "Semi-Major Axis(m)": 6931778.249405717,
        "Time(s)": 70
    },
    {
        "Altitude(m)": 571800.9382003329,
        "Argument of Periapsis(deg)": 0.002788627836089895,
        "Eccentricity": 0.0,
        "Inclination(deg)": 53.0,
        "Latitude(deg)": -53.035617023392305,
        "Longitude(deg)": 4.455669074718344,
        "Mean Anomaly(deg)": -93.16715037154624,
        "RAAN(deg)": 199.9958498393802,
        "Satellite Name": "Starlink Shell 1 896",
        "Satellite Number": 896,
        "Semi-Major Axis(m)": 6931778.249405717,
        "Time(s)": 80
    },
    {
        "Altitude(m)": 571816.6640233046,
        "Argument of Periapsis(deg)": 0.0031372063156011316,
        "Eccentricity": 0.0,
        "Inclination(deg)": 53.0,
        "Latitude(deg)": -53.076668134041356,
        "Longitude(deg)": 5.448612960181657,
        "Mean Anomaly(deg)": -92.54031916798957,
        "RAAN(deg)": 199.99533106930275,
        "Satellite Name": "Starlink Shell 1 896",
        "Satellite Number": 896,
        "Semi-Major Axis(m)": 6931778.249405717,
        "Time(s)": 90
    },
    {
        "Altitude(m)": 571828.920046028,
        "Argument of Periapsis(deg)": 0.0034857847951123688,
        "Eccentricity": 0.0,
        "Inclination(deg)": 53.0,
        "Latitude(deg)": -53.10871975941787,
        "Longitude(deg)": 6.443307159832434,
        "Mean Anomaly(deg)": -91.91348796443285,
        "RAAN(deg)": 199.9948122992253,
        "Satellite Name": "Starlink Shell 1 896",
        "Satellite Number": 896,
        "Semi-Major Axis(m)": 6931778.249405717,
        "Time(s)": 100
    },
    {
        "Altitude(m)": 571837.7013547746,
        "Argument of Periapsis(deg)": 0.003834363274623606,
        "Eccentricity": 0.0,
        "Inclination(deg)": 53.0,
        "Latitude(deg)": -53.1317482569334,
        "Longitude(deg)": 7.439323537843343,
        "Mean Anomaly(deg)": -91.28665676087616,
        "RAAN(deg)": 199.9942935291478,
        "Satellite Name": "Starlink Shell 1 896",
        "Satellite Number": 896,
        "Semi-Major Axis(m)": 6931778.249405717,
        "Time(s)": 110
    },
    {
        "Altitude(m)": 571843.0044227242,
        "Argument of Periapsis(deg)": 0.004182941754134842,
        "Eccentricity": 0.0,
        "Inclination(deg)": 53.0,
        "Latitude(deg)": -53.145736589218004,
        "Longitude(deg)": 8.436230027908953,
        "Mean Anomaly(deg)": -90.65982555731941,
        "RAAN(deg)": 199.99377475907033,
        "Satellite Name": "Starlink Shell 1 896",
        "Satellite Number": 896,
        "Semi-Major Axis(m)": 6931778.249405717,
        "Time(s)": 120
    },
    {
        "Altitude(m)": 571844.8271114972,
        "Argument of Periapsis(deg)": 0.004531520233646079,
        "Eccentricity": 0.0,
        "Inclination(deg)": 53.0,
        "Latitude(deg)": -53.15067438627036,
        "Longitude(deg)": 9.433592411623987,
        "Mean Anomaly(deg)": -90.03299435376276,
        "RAAN(deg)": 199.9932559889929,
        "Satellite Name": "Starlink Shell 1 896",
        "Satellite Number": 896,
        "Semi-Major Axis(m)": 6931778.249405717,
        "Time(s)": 130
    },
    {
        "Altitude(m)": 571843.1686720887,
        "Argument of Periapsis(deg)": 0.0048800987131573164,
        "Eccentricity": 0.0,
        "Inclination(deg)": 53.0,
        "Latitude(deg)": -53.146557983416045,
        "Longitude(deg)": 10.430974603450755,
        "Mean Anomaly(deg)": -89.40616315020597,
        "RAAN(deg)": 199.99273721891538,
        "Satellite Name": "Starlink Shell 1 896",
        "Satellite Number": 896,
        "Semi-Major Axis(m)": 6931778.249405717,
        "Time(s)": 140
    },
    {
        "Altitude(m)": 571838.0297451747,
        "Argument of Periapsis(deg)": 0.005228677192668553,
        "Eccentricity": 0.0,
        "Inclination(deg)": 53.0,
        "Latitude(deg)": -53.133390434742594,
        "Longitude(deg)": 11.427940458574124,
        "Mean Anomaly(deg)": -88.77933194664924,
        "RAAN(deg)": 199.9922184488379,
        "Satellite Name": "Starlink Shell 1 896",
        "Satellite Number": 896,
        "Semi-Major Axis(m)": 6931778.249405717,
        "Time(s)": 150
    },
    {
        "Altitude(m)": 571829.412360856,
        "Argument of Periapsis(deg)": 0.00557725567217979,
        "Eccentricity": 0.0,
        "Inclination(deg)": 53.0,
        "Latitude(deg)": -53.111181501899196,
        "Longitude(deg)": 12.424055581194448,
        "Mean Anomaly(deg)": -88.15250074309257,
        "RAAN(deg)": 199.99169967876043,
        "Satellite Name": "Starlink Shell 1 896",
        "Satellite Number": 896,
        "Semi-Major Axis(m)": 6931778.249405717,
        "Time(s)": 160
    },
    {
        "Altitude(m)": 571817.3199377798,
        "Argument of Periapsis(deg)": 0.0059258341516910265,
        "Eccentricity": 0.0,
        "Inclination(deg)": 53.0,
        "Latitude(deg)": -53.07994761835977,
        "Longitude(deg)": 13.418887610796949,
        "Mean Anomaly(deg)": -87.5256695395358,
        "RAAN(deg)": 199.99118090868294,
        "Satellite Name": "Starlink Shell 1 896",
        "Satellite Number": 896,
        "Semi-Major Axis(m)": 6931778.249405717,
        "Time(s)": 170
    },
    {
        "Altitude(m)": 571801.7572816671,
        "Argument of Periapsis(deg)": 0.006274412631202263,
        "Eccentricity": 0.0,
        "Inclination(deg)": 53.0,
        "Latitude(deg)": -53.03971182945023,
        "Longitude(deg)": 14.412008002680617,
        "Mean Anomaly(deg)": -86.89883833597916,
        "RAAN(deg)": 199.9906621386055,
        "Satellite Name": "Starlink Shell 1 896",
        "Satellite Number": 896,
        "Semi-Major Axis(m)": 6931778.249405717,
        "Time(s)": 180
    }
]